{
  "type": "FeatureCollection",
  "features": [
    {
      "type": "Feature",
      "properties": {
        "norad_id": 66909,
        "name": "SILVERSAT",
        "group": "stations",
        "lat": -45.91801866309782,
        "lon": 29.27678431165014,
        "alt_km": 415.06853144115485,
        "timestamp": "2025-12-10T07:43:53.564830+00:00",
        "meta_object_name": "SILVERSAT",
        "meta_object_id": "1998-067XV",
        "meta_epoch": "2025-12-09T19:50:59.695584",
        "meta_mean_motion": 15.51056405,
        "meta_eccentricity": 0.0004877,
        "meta_inclination": 51.6304,
        "meta_ra_of_asc_node": 156.8402,
        "meta_arg_of_pericenter": 210.6195,
        "meta_mean_anomaly": 149.451,
        "meta_ephemeris_type": 0,
        "meta_classification_type": "U",
        "meta_norad_cat_id": 66909,
        "meta_element_set_no": 999,
        "meta_rev_at_epoch": 116,
        "meta_bstar": 0.00154,
        "meta_mean_motion_dot": 0.00091886,
        "meta_mean_motion_ddot": 0,
        "tle_line1": "1 66909U 98067XV  25343.82707981  .00091886  00000+0  15400-2 0  9992",
        "tle_line2": "2 66909  51.6304 156.8402 0004877 210.6195 149.4510 15.51056405  1161"
      },
      "geometry": {
        "type": "Point",
        "coordinates": [
          29.27678431165014,
          -45.91801866309782
        ]
      }
    },
    {
      "type": "Feature",
      "properties": {
        "norad_id": 66910,
        "name": "1998-067XW",
        "group": "stations",
        "lat": -48.70970438328767,
        "lon": 38.811042044930204,
        "alt_km": 415.3187106480782,
        "timestamp": "2025-12-10T07:43:53.564840+00:00",
        "meta_object_name": "1998-067XW",
        "meta_object_id": "1998-067XW",
        "meta_epoch": "2025-12-09T18:16:30.088704",
        "meta_mean_motion": 15.51233501,
        "meta_eccentricity": 0.0005725,
        "meta_inclination": 51.6303,
        "meta_ra_of_asc_node": 157.1524,
        "meta_arg_of_pericenter": 193.6821,
        "meta_mean_anomaly": 166.4014,
        "meta_ephemeris_type": 0,
        "meta_classification_type": "U",
        "meta_norad_cat_id": 66910,
        "meta_element_set_no": 999,
        "meta_rev_at_epoch": 115,
        "meta_bstar": 0.0012863,
        "meta_mean_motion_dot": 0.00077029,
        "meta_mean_motion_ddot": 0,
        "tle_line1": "1 66910U 98067XW  25343.76145936  .00077029  00000+0  12863-2 0  9996",
        "tle_line2": "2 66910  51.6303 157.1524 0005725 193.6821 166.4014 15.51233501  1151"
      },
      "geometry": {
        "type": "Point",
        "coordinates": [
          38.811042044930204,
          -48.70970438328767
        ]
      }
    },
    {
      "type": "Feature",
      "properties": {
        "norad_id": 66911,
        "name": "1998-067XX",
        "group": "stations",
        "lat": -49.385203708520734,
        "lon": 41.86968206304177,
        "alt_km": 414.9929807642384,
        "timestamp": "2025-12-10T07:43:53.564850+00:00",
        "meta_object_name": "1998-067XX",
        "meta_object_id": "1998-067XX",
        "meta_epoch": "2025-12-09T02:48:25.040736",
        "meta_mean_motion": 15.51276485,
        "meta_eccentricity": 0.00057034,
        "meta_inclination": 51.6296,
        "meta_ra_of_asc_node": 160.3494,
        "meta_arg_of_pericenter": 191.2268,
        "meta_mean_anomaly": 168.8595,
        "meta_ephemeris_type": 0,
        "meta_classification_type": "U",
        "meta_norad_cat_id": 66911,
        "meta_element_set_no": 999,
        "meta_rev_at_epoch": 104,
        "meta_bstar": 0.0014245982,
        "meta_mean_motion_dot": 0.00085582,
        "meta_mean_motion_ddot": 0,
        "tle_line1": "1 66911U 98067XX  25343.11695649  .00085582  00000+0  14246-2 0  9997",
        "tle_line2": "2 66911  51.6296 160.3494 0005703 191.2268 168.8595 15.51276485  1046"
      },
      "geometry": {
        "type": "Point",
        "coordinates": [
          41.86968206304177,
          -49.385203708520734
        ]
      }
    },
    {
      "type": "Feature",
      "properties": {
        "norad_id": 66912,
        "name": "1998-067XY",
        "group": "stations",
        "lat": -43.22798373652505,
        "lon": 22.52920782269974,
        "alt_km": 415.9542511493273,
        "timestamp": "2025-12-10T07:43:53.564859+00:00",
        "meta_object_name": "1998-067XY",
        "meta_object_id": "1998-067XY",
        "meta_epoch": "2025-12-08T19:07:24.168000",
        "meta_mean_motion": 15.50590071,
        "meta_eccentricity": 0.00050436,
        "meta_inclination": 51.6301,
        "meta_ra_of_asc_node": 161.961,
        "meta_arg_of_pericenter": 202.8278,
        "meta_mean_anomaly": 157.2488,
        "meta_ephemeris_type": 0,
        "meta_classification_type": "U",
        "meta_norad_cat_id": 66912,
        "meta_element_set_no": 999,
        "meta_rev_at_epoch": 99,
        "meta_bstar": 0.0009627216,
        "meta_mean_motion_dot": 0.00056065,
        "meta_mean_motion_ddot": 0,
        "tle_line1": "1 66912U 98067XY  25342.79680750  .00056065  00000+0  96272-3 0  9992",
        "tle_line2": "2 66912  51.6301 161.9610 0005043 202.8278 157.2488 15.50590071   993"
      },
      "geometry": {
        "type": "Point",
        "coordinates": [
          22.52920782269974,
          -43.22798373652505
        ]
      }
    }
  ]
}